{"type": "FeatureCollection", "features": [ {"type": "Feature", "properties": {"norad_id": 41335, "name": "SENTINEL-3A", "group": "resource", "lat": 64.268757690851, "lon": 23.186545228185754, "alt_km": 795.697622693343, "timestamp": "2025-12-02T08:59:32.376925+00:00", "meta": {"OBJECT_NAME": "SENTINEL-3A", "OBJECT_ID": "2016-011A", "EPOCH": "2025-12-02T03:38:10.893408", "MEAN_MOTION": 14.2673985, "ECCENTRICITY": 0.0001002, "INCLINATION": 98.6221, "RA_OF_ASC_NODE": 41.3171, "ARG_OF_PERICENTER": 91.1414, "MEAN_ANOMALY": 268.9881, "EPHEMERIS_TYPE": 0, "CLASSIFICATION_TYPE": "U", "NORAD_CAT_ID": 41335, "ELEMENT_SET_NO": 999, "REV_AT_EPOCH": 50996, "BSTAR": 9.07e-05, "MEAN_MOTION_DOT": 1.76e-06, "MEAN_MOTION_DDOT": 0}, "tle": {"line1": "1 41335U 16011A   25336.15151497  .00000176  00000+0  90700-4 0  9990", "line2": "2 41335  98.6221  41.3171 0001002  91.1414 268.9881 14.26739850509962"}}, "geometry": {"type": "Point", "coordinates": [23.186545228185754, 64.268757690851]}}, {"type": "Feature", "properties": {"norad_id": 41556, "name": "ZIYUAN 3-2 (ZY 3-2)", "group": "resource", "lat": -70.36284820641636, "lon": -150.66727141846005, "alt_km": 502.581223456682, "timestamp": "2025-12-02T08:59:32.376935+00:00", "meta": {"OBJECT_NAME": "ZIYUAN 3-2 (ZY 3-2)", "OBJECT_ID": "2016-033A", "EPOCH": "2025-12-02T04:43:50.793888", "MEAN_MOTION": 15.21261278, "ECCENTRICITY": 0.0012437, "INCLINATION": 97.4061, "RA_OF_ASC_NODE": 50.5379, "ARG_OF_PERICENTER": 290.315, "MEAN_ANOMALY": 69.6749, "EPHEMERIS_TYPE": 0, "CLASSIFICATION_TYPE": "U", "NORAD_CAT_ID": 41556, "ELEMENT_SET_NO": 999, "REV_AT_EPOCH": 52803, "BSTAR": 0.00039274, "MEAN_MOTION_DOT": 8.727e-05, "MEAN_MOTION_DDOT": 0}, "tle": {"line1": "1 41556U 16033A   25336.19711567  .00008727  00000+0  39274-3 0  9991", "line2": "2 41556  97.4061  50.5379 0012437 290.3150  69.6749 15.21261278528030"}}, "geometry": {"type": "Point", "coordinates": [-150.66727141846005, -70.36284820641636]}}, {"type": "Feature", "properties": {"norad_id": 41599, "name": "CARTOSAT-2C", "group": "resource", "lat": -80.15135729483423, "lon": 82.90178170779231, "alt_km": 522.9993280798808, "timestamp": "2025-12-02T08:59:32.376945+00:00", "meta": {"OBJECT_NAME": "CARTOSAT-2C", "OBJECT_ID": "2016-040A", "EPOCH": "2025-12-02T04:37:06.471264", "MEAN_MOTION": 15.19343909, "ECCENTRICITY": 0.001138, "INCLINATION": 97.4783, "RA_OF_ASC_NODE": 33.5511, "ARG_OF_PERICENTER": 101.4555, "MEAN_ANOMALY": 258.7958, "EPHEMERIS_TYPE": 0, "CLASSIFICATION_TYPE": "U", "NORAD_CAT_ID": 41599, "ELEMENT_SET_NO": 999, "REV_AT_EPOCH": 52380, "BSTAR": 2.8445e-05, "MEAN_MOTION_DOT": 5.33e-06, "MEAN_MOTION_DDOT": 0}, "tle": {"line1": "1 41599U 16040A   25336.19243601  .00000533  00000+0  28445-4 0  9991", "line2": "2 41599  97.4783  33.5511 0011380 101.4555 258.7958 15.19343909523806"}}, "geometry": {"type": "Point", "coordinates": [82.90178170779231, -80.15135729483423]}}, {"type": "Feature", "properties": {"norad_id": 41601, "name": "SKYSAT-C1", "group": "resource", "lat": -19.220341772788743, "lon": -168.474856392874, "alt_km": 476.3773419969448, "timestamp": "2025-12-02T08:59:32.376956+00:00", "meta": {"OBJECT_NAME": "SKYSAT-C1", "OBJECT_ID": "2016-040C", "EPOCH": "2025-12-02T01:51:22.944096", "MEAN_MOTION": 15.32287703, "ECCENTRICITY": 0.0003413, "INCLINATION": 96.9847, "RA_OF_ASC_NODE": 13.6943, "ARG_OF_PERICENTER": 41.9438, "MEAN_ANOMALY": 318.2066, "EPHEMERIS_TYPE": 0, "CLASSIFICATION_TYPE": "U", "NORAD_CAT_ID": 41601, "ELEMENT_SET_NO": 999, "REV_AT_EPOCH": 52764, "BSTAR": 0.00034359, "MEAN_MOTION_DOT": 0.00010645, "MEAN_MOTION_DDOT": 0}, "tle": {"line1": "1 41601U 16040C   25336.07734889  .00010645  00000+0  34359-3 0  9990", "line2": "2 41601  96.9847  13.6943 0003413  41.9438 318.2066 15.32287703527641"}}, "geometry": {"type": "Point", "coordinates": [-168.474856392874, -19.220341772788743]}}, {"type": "Feature", "properties": {"norad_id": 41603, "name": "LAPAN-A3", "group": "resource", "lat": 18.277283800310958, "lon": -28.06389809484241, "alt_km": 464.5463237786371, "timestamp": "2025-12-02T08:59:32.376966+00:00", "meta": {"OBJECT_NAME": "LAPAN-A3", "OBJECT_ID": "2016-040E", "EPOCH": "2025-12-02T05:46:33.278880", "MEAN_MOTION": 15.31421673, "ECCENTRICITY": 0.0010981, "INCLINATION": 97.1424, "RA_OF_ASC_NODE": 334.1806, "ARG_OF_PERICENTER": 12.2511, "MEAN_ANOMALY": 347.8996, "EPHEMERIS_TYPE": 0, "CLASSIFICATION_TYPE": "U", "NORAD_CAT_ID": 41603, "ELEMENT_SET_NO": 999, "REV_AT_EPOCH": 52465, "BSTAR": 0.0001589, "MEAN_MOTION_DOT": 4.755e-05, "MEAN_MOTION_DDOT": 0}, "tle": {"line1": "1 41603U 16040E   25336.24066295  .00004755  00000+0  15890-3 0  9994", "line2": "2 41603  97.1424 334.1806 0010981  12.2511 347.8996 15.31421673524650"}}, "geometry": {"type": "Point", "coordinates": [-28.06389809484241, 18.277283800310958]}}, {"type": "Feature", "properties": {"norad_id": 41604, "name": "BIROS", "group": "resource", "lat": -82.45923136636435, "lon": 77.10603282319431, "alt_km": 322.4539556955724, "timestamp": "2025-12-02T08:59:32.376976+00:00", "meta": {"OBJECT_NAME": "BIROS", "OBJECT_ID": "2016-040F", "EPOCH": "2025-12-02T01:47:12.309792", "MEAN_MOTION": 15.85419882, "ECCENTRICITY": 0.0002524, "INCLINATION": 97.0713, "RA_OF_ASC_NODE": 7.1141, "ARG_OF_PERICENTER": 176.7275, "MEAN_ANOMALY": 183.4013, "EPHEMERIS_TYPE": 0, "CLASSIFICATION_TYPE": "U", "NORAD_CAT_ID": 41604, "ELEMENT_SET_NO": 999, "REV_AT_EPOCH": 52703, "BSTAR": 0.00063106, "MEAN_MOTION_DOT": 0.00152369, "MEAN_MOTION_DDOT": 0}, "tle": {"line1": "1 41604U 16040F   25336.07444803  .00152369  00000+0  63106-3 0  9999", "line2": "2 41604  97.0713   7.1141 0002524 176.7275 183.4013 15.85419882527034"}}, "geometry": {"type": "Point", "coordinates": [77.10603282319431, -82.45923136636435]}}, {"type": "Feature", "properties": {"norad_id": 41727, "name": "GAOFEN-3", "group": "resource", "lat": -60.153354444794175, "lon": 147.1881276524102, "alt_km": 759.3215019370664, "timestamp": "2025-12-02T08:59:32.376987+00:00", "meta": {"OBJECT_NAME": "GAOFEN-3", "OBJECT_ID": "2016-049A", "EPOCH": "2025-12-02T04:32:50.292672", "MEAN_MOTION": 14.42230472, "ECCENTRICITY": 0.0001536, "INCLINATION": 98.4042, "RA_OF_ASC_NODE": 341.9366, "ARG_OF_PERICENTER": 76.9529, "MEAN_ANOMALY": 283.1832, "EPHEMERIS_TYPE": 0, "CLASSIFICATION_TYPE": "U", "NORAD_CAT_ID": 41727, "ELEMENT_SET_NO": 999, "REV_AT_EPOCH": 49025, "BSTAR": 4.742e-05, "MEAN_MOTION_DOT": 1.13e-06, "MEAN_MOTION_DDOT": 0}, "tle": {"line1": "1 41727U 16049A   25336.18947098  .00000113  00000+0  47420-4 0  9991", "line2": "2 41727  98.4042 341.9366 0001536  76.9529 283.1832 14.42230472490251"}}, "geometry": {"type": "Point", "coordinates": [147.1881276524102, -60.153354444794175]}}, {"type": "Feature", "properties": {"norad_id": 41771, "name": "SKYSAT-C4", "group": "resource", "lat": 41.94654867302582, "lon": -171.6457325125311, "alt_km": 437.1056432891537, "timestamp": "2025-12-02T08:59:32.376997+00:00", "meta": {"OBJECT_NAME": "SKYSAT-C4", "OBJECT_ID": "2016-058B", "EPOCH": "2025-12-02T02:10:01.106112", "MEAN_MOTION": 15.41785331, "ECCENTRICITY": 6.74e-05, "INCLINATION": 96.9392, "RA_OF_ASC_NODE": 1.7997, "ARG_OF_PERICENTER": 108.5071, "MEAN_ANOMALY": 251.625, "EPHEMERIS_TYPE": 0, "CLASSIFICATION_TYPE": "U", "NORAD_CAT_ID": 41771, "ELEMENT_SET_NO": 999, "REV_AT_EPOCH": 51503, "BSTAR": 0.00040333, "MEAN_MOTION_DOT": 0.00017006, "MEAN_MOTION_DDOT": 0}, "tle": {"line1": "1 41771U 16058B   25336.09029058  .00017006  00000+0  40333-3 0  9991", "line2": "2 41771  96.9392   1.7997 0000674 108.5071 251.6250 15.41785331515035"}}, "geometry": {"type": "Point", "coordinates": [-171.6457325125311, 41.94654867302582]}}, {"type": "Feature", "properties": {"norad_id": 41772, "name": "SKYSAT-C5", "group": "resource", "lat": -58.317231517957275, "lon": 32.15044176544922, "alt_km": 468.7685695346963, "timestamp": "2025-12-02T08:59:32.377007+00:00", "meta": {"OBJECT_NAME": "SKYSAT-C5", "OBJECT_ID": "2016-058C", "EPOCH": "2025-12-02T01:25:42.406176", "MEAN_MOTION": 15.3536725, "ECCENTRICITY": 0.0002768, "INCLINATION": 97.0773, "RA_OF_ASC_NODE": 20.2347, "ARG_OF_PERICENTER": 114.4197, "MEAN_ANOMALY": 245.7336, "EPHEMERIS_TYPE": 0, "CLASSIFICATION_TYPE": "U", "NORAD_CAT_ID": 41772, "ELEMENT_SET_NO": 999, "REV_AT_EPOCH": 51352, "BSTAR": 0.00156, "MEAN_MOTION_DOT": 0.00053827, "MEAN_MOTION_DDOT": 0}, "tle": {"line1": "1 41772U 16058C   25336.05951859  .00053827  00000+0  15600-2 0  9990", "line2": "2 41772  97.0773  20.2347 0002768 114.4197 245.7336 15.35367250513527"}}, "geometry": {"type": "Point", "coordinates": [32.15044176544922, -58.317231517957275]}}, {"type": "Feature", "properties": {"norad_id": 41773, "name": "SKYSAT-C2", "group": "resource", "lat": -65.10783574039058, "lon": 165.90342550837093, "alt_km": 466.0158740868965, "timestamp": "2025-12-02T08:59:32.377018+00:00", "meta": {"OBJECT_NAME": "SKYSAT-C2", "OBJECT_ID": "2016-058D", "EPOCH": "2025-12-02T01:40:29.417088", "MEAN_MOTION": 15.36900037, "ECCENTRICITY": 0.0005137, "INCLINATION": 97.0376, "RA_OF_ASC_NODE": 1.0519, "ARG_OF_PERICENTER": 61.0509, "MEAN_ANOMALY": 299.1251, "EPHEMERIS_TYPE": 0, "CLASSIFICATION_TYPE": "U", "NORAD_CAT_ID": 41773, "ELEMENT_SET_NO": 999, "REV_AT_EPOCH": 51472, "BSTAR": 0.0003711, "MEAN_MOTION_DOT": 0.00013325, "MEAN_MOTION_DDOT": 0}, "tle": {"line1": "1 41773U 16058D   25336.06978492  .00013325  00000+0  37110-3 0  9994", "line2": "2 41773  97.0376   1.0519 0005137  61.0509 299.1251 15.36900037514721"}}, "geometry": {"type": "Point", "coordinates": [165.90342550837093, -65.10783574039058]}}]}